0 COSMOS 886 DEB *
1 13943U 76126BM  13281.88292620  .00001218  00000-0  72275-3 0  2243
2 13943 065.5805 133.0658 0081687 328.9941 121.9870 14.09633726485908
0 COSMOS 886 DEB *
1 13943U 76126BM  13282.94996418  .00001495  00000-0  87593-3 0  2254
2 13943 065.5804 130.2445 0081695 328.5499 136.8169 14.09639793486056
0 COSMOS 886 DEB *
1 13943U 76126BM  13285.92988010  .00001708  00000-0  99312-3 0  2275
2 13943 065.5804 122.3651 0081880 327.2512 138.9426 14.09647066486472
0 COSMOS 886 DEB *
1 13943U 76126BM  13287.54683794  .00001968  00000-0  11363-2 0  2284
2 13943 065.5806 118.0891 0082028 326.5355 064.5362 14.09652900486706
0 COSMOS 886 DEB *
1 13943U 76126BM  13288.83648367  .00002446  00000-0  13998-2 0  2293
2 13943 065.5806 114.6815 0081912 325.9139 129.1996 14.09659730486886
0 COSMOS 886 DEB *
1 13943U 76126BM  13289.90366300  .00002706  00000-0  15434-2 0  2304
2 13943 065.5808 111.8592 0081977 325.4218 144.8959 14.09663654487034
0 COSMOS 886 DEB *
1 13943U 76126BM  13290.96122750  .00002591  00000-0  14795-2 0  2313
2 13943 065.5810 109.0625 0082034 324.8947 111.8553 14.09669243487180
0 COSMOS 886 DEB *
1 13943U 76126BM  13292.45309631  .00002687  00000-0  15324-2 0  2320
2 13943 065.5817 105.1172 0082168 324.1751 122.8439 14.09676284487396
0 COSMOS 886 DEB *
1 13943U 76126BM  13293.80345455  .00002893  00000-0  16454-2 0  2339
2 13943 065.5822 101.5463 0082328 323.4839 135.7650 14.09682585487582
0 COSMOS 886 DEB *
1 13943U 76126BM  13294.93410946  .00003101  00000-0  17595-2 0  2343
2 13943 065.5825 098.5563 0082474 322.9360 113.7093 14.09687742487741
